{
  "links" : {
    "next" : "https://api.nasa.gov/neo/rest/v1/feed?start_date=2014-05-16&end_date=2014-05-16&detailed=true&api_key=t0TVs3DtDT2H8Oy2Zy8m2eVrNsAVKAexjcZXUckd",
    "prev" : "https://api.nasa.gov/neo/rest/v1/feed?start_date=2014-05-14&end_date=2014-05-14&detailed=true&api_key=t0TVs3DtDT2H8Oy2Zy8m2eVrNsAVKAexjcZXUckd",
    "self" : "https://api.nasa.gov/neo/rest/v1/feed?start_date=2014-05-15&end_date=2014-05-15&detailed=true&api_key=t0TVs3DtDT2H8Oy2Zy8m2eVrNsAVKAexjcZXUckd"
  },
  "element_count" : 8,
  "near_earth_objects" : {
    "2014-05-15" : [ {
      "links" : {
        "self" : "https://api.nasa.gov/neo/rest/v1/neo/3698502?api_key=t0TVs3DtDT2H8Oy2Zy8m2eVrNsAVKAexjcZXUckd"
      },
      "neo_reference_id" : "3698502",
      "name" : "(2014 HC197)",
      "nasa_jpl_url" : "http://ssd.jpl.nasa.gov/sbdb.cgi?sstr=3698502",
      "absolute_magnitude_h" : 23.2,
      "estimated_diameter" : {
        "kilometers" : {
          "estimated_diameter_min" : 0.0608912622,
          "estimated_diameter_max" : 0.1361570015
        },
        "meters" : {
          "estimated_diameter_min" : 60.8912622106,
          "estimated_diameter_max" : 136.1570015386
        },
        "miles" : {
          "estimated_diameter_min" : 0.0378360645,
          "estimated_diameter_max" : 0.0846040122
        },
        "feet" : {
          "estimated_diameter_min" : 199.7744887109,
          "estimated_diameter_max" : 446.7093369279
        }
      },
      "is_potentially_hazardous_asteroid" : false,
      "close_approach_data" : [ {
        "close_approach_date" : "2014-05-15",
        "epoch_date_close_approach" : 1400137200000,
        "relative_velocity" : {
          "kilometers_per_second" : "7.002816902",
          "kilometers_per_hour" : "25210.1408472512",
          "miles_per_hour" : "15664.6011281156"
        },
        "miss_distance" : {
          "astronomical" : "0.2831294135",
          "lunar" : "110.1373443604",
          "kilometers" : "42355560",
          "miles" : "26318524"
        },
        "orbiting_body" : "Earth"
      } ],
      "orbital_data" : {
        "orbit_id" : "4",
        "orbit_determination_date" : "2017-04-06 08:41:00",
        "orbit_uncertainty" : "9",
        "minimum_orbit_intersection" : ".267536",
        "jupiter_tisserand_invariant" : "4.138",
        "epoch_osculation" : "2456774.5",
        "eccentricity" : ".278548602372193",
        "semi_major_axis" : "1.692117195637236",
        "inclination" : "13.97256471888506",
        "ascending_node_longitude" : "212.0043908411827",
        "orbital_period" : "803.9778524215457",
        "perihelion_distance" : "1.220780315742529",
        "perihelion_argument" : "53.52861770045986",
        "aphelion_distance" : "2.163454075531943",
        "perihelion_time" : "2456835.686501996081",
        "mean_anomaly" : "332.6023040905363",
        "mean_motion" : ".4477735287305439",
        "equinox" : "J2000"
      }
    }, {
      "links" : {
        "self" : "https://api.nasa.gov/neo/rest/v1/neo/3698547?api_key=t0TVs3DtDT2H8Oy2Zy8m2eVrNsAVKAexjcZXUckd"
      },
      "neo_reference_id" : "3698547",
      "name" : "(2014 HV198)",
      "nasa_jpl_url" : "http://ssd.jpl.nasa.gov/sbdb.cgi?sstr=3698547",
      "absolute_magnitude_h" : 26.4,
      "estimated_diameter" : {
        "kilometers" : {
          "estimated_diameter_min" : 0.0139493823,
          "estimated_diameter_max" : 0.0311917671
        },
        "meters" : {
          "estimated_diameter_min" : 13.9493822934,
          "estimated_diameter_max" : 31.1917670523
        },
        "miles" : {
          "estimated_diameter_min" : 0.0086677416,
          "estimated_diameter_max" : 0.0193816595
        },
        "feet" : {
          "estimated_diameter_min" : 45.7656914036,
          "estimated_diameter_max" : 102.3351970157
        }
      },
      "is_potentially_hazardous_asteroid" : false,
      "close_approach_data" : [ {
        "close_approach_date" : "2014-05-15",
        "epoch_date_close_approach" : 1400137200000,
        "relative_velocity" : {
          "kilometers_per_second" : "9.7135021298",
          "kilometers_per_hour" : "34968.6076673846",
          "miles_per_hour" : "21728.1329142146"
        },
        "miss_distance" : {
          "astronomical" : "0.0955802871",
          "lunar" : "37.1807327271",
          "kilometers" : "14298608",
          "miles" : "8884743"
        },
        "orbiting_body" : "Earth"
      } ],
      "orbital_data" : {
        "orbit_id" : "6",
        "orbit_determination_date" : "2017-04-06 08:40:47",
        "orbit_uncertainty" : "9",
        "minimum_orbit_intersection" : ".0917465",
        "jupiter_tisserand_invariant" : "5.070",
        "epoch_osculation" : "2456776.5",
        "eccentricity" : ".2193385324021044",
        "semi_major_axis" : "1.253592168537273",
        "inclination" : "16.33426213569988",
        "ascending_node_longitude" : "223.7180289292314",
        "orbital_period" : "512.6640125653547",
        "perihelion_distance" : ".9786311020595359",
        "perihelion_argument" : "73.50580101126124",
        "aphelion_distance" : "1.52855323501501",
        "perihelion_time" : "2456854.261867318838",
        "mean_anomaly" : "305.394504883034",
        "mean_motion" : ".7022142985979672",
        "equinox" : "J2000"
      }
    }, {
      "links" : {
        "self" : "https://api.nasa.gov/neo/rest/v1/neo/3672900?api_key=t0TVs3DtDT2H8Oy2Zy8m2eVrNsAVKAexjcZXUckd"
      },
      "neo_reference_id" : "3672900",
      "name" : "(2014 KM76)",
      "nasa_jpl_url" : "http://ssd.jpl.nasa.gov/sbdb.cgi?sstr=3672900",
      "absolute_magnitude_h" : 20.2,
      "estimated_diameter" : {
        "kilometers" : {
          "estimated_diameter_min" : 0.2424124811,
          "estimated_diameter_max" : 0.5420507863
        },
        "meters" : {
          "estimated_diameter_min" : 242.4124811008,
          "estimated_diameter_max" : 542.0507863358
        },
        "miles" : {
          "estimated_diameter_min" : 0.1506280858,
          "estimated_diameter_max" : 0.3368146392
        },
        "feet" : {
          "estimated_diameter_min" : 795.3165644948,
          "estimated_diameter_max" : 1778.3819018419
        }
      },
      "is_potentially_hazardous_asteroid" : false,
      "close_approach_data" : [ {
        "close_approach_date" : "2014-05-15",
        "epoch_date_close_approach" : 1400137200000,
        "relative_velocity" : {
          "kilometers_per_second" : "32.6442819963",
          "kilometers_per_hour" : "117519.4151867783",
          "miles_per_hour" : "73021.9943975845"
        },
        "miss_distance" : {
          "astronomical" : "0.4463890699",
          "lunar" : "173.6453552246",
          "kilometers" : "66778856",
          "miles" : "41494456"
        },
        "orbiting_body" : "Earth"
      } ],
      "orbital_data" : {
        "orbit_id" : "8",
        "orbit_determination_date" : "2017-04-06 08:40:18",
        "orbit_uncertainty" : "6",
        "minimum_orbit_intersection" : ".082451",
        "jupiter_tisserand_invariant" : "3.419",
        "epoch_osculation" : "2458000.5",
        "eccentricity" : ".4026888387011459",
        "semi_major_axis" : "1.815764521604482",
        "inclination" : "59.21688524486495",
        "ascending_node_longitude" : "38.54184457415258",
        "orbital_period" : "893.6916825786781",
        "perihelion_distance" : "1.084576415044831",
        "perihelion_argument" : "189.1219061490848",
        "aphelion_distance" : "2.546952628164132",
        "perihelion_time" : "2457706.797418990029",
        "mean_anomaly" : "118.3102978630229",
        "mean_motion" : ".4028234871351246",
        "equinox" : "J2000"
      }
    } ]
  }
}